QIANFAN-9               
1 60387U 24140J   25216.55252597  .00000126  00000+0  17592-3 0  9996
2 60387  88.9847 312.7875 0015733 206.6760 153.3583 13.50957373 49744
QIANFAN-10              
1 60388U 24140K   25216.55666027  .00000125  00000+0  17435-3 0  9999
2 60388  88.9856 312.1225 0015038 183.2690 176.8366 13.50959648 50139
QIANFAN-11              
1 60389U 24140L   25216.51958286  .00000130  00000+0  18351-3 0  9991
2 60389  88.9783 312.8098 0013776 205.4471 154.6003 13.50959792 49629
QIANFAN-12              
1 60390U 24140M   25216.54009962  .00000115  00000+0  16018-3 0  9995
2 60390  88.9827 312.7942 0012323 213.1325 146.9055 13.50959661 49703
QIANFAN-13              
1 60391U 24140N   25216.51131547  .00000120  00000+0  16703-3 0  9995
2 60391  88.9839 312.8809 0012051 215.9231 144.1111 13.50959459 49678
QIANFAN-14              
1 60392U 24140P   25216.53595406  .00000117  00000+0  16322-3 0  9999
2 60392  88.9817 312.8039 0015709 217.7821 142.2228 13.50960633 49683
QIANFAN-15              
1 60393U 24140Q   25216.54432602  .00000113  00000+0  15592-3 0  9993
2 60393  88.9841 312.7288 0012027 201.0450 159.0208 13.50957318 49769
QIANFAN-16              
1 60394U 24140R   25216.53194608  .00000129  00000+0  18115-3 0  9995
2 60394  88.9844 312.8460 0013510 221.0043 139.0094 13.50959774 49718
